NORAD_CAT_ID,OBJECT_NAME,OBJECT_TYPE,EPOCH,MEAN_MOTION,ECCENTRICITY,INCLINATION,RA_OF_ASC_NODE,ARG_OF_PERICENTER,MEAN_ANOMALY,BSTAR,MEAN_MOTION_DOT,MEAN_MOTION_DDOT,TLE_LINE0,TLE_LINE1,TLE_LINE2,SEMIMAJOR_AXIS,PERIOD,APOGEE,PERIGEE,DECAYED
51756.0,STARLINK-3513,PAYLOAD,2022-10-06 09:11:07,15.08833244,0.0001746,53.219,161.9766,46.4086,313.7051,-1.1887e-05,-4.77e-06,0.0,0 STARLINK-3513,1 51756U 22016AU  22279.38272170 -.00000477  00000-0 -11887-4 0  9996,2 51756  53.2190 161.9766 0001746  46.4086 313.7051 15.08833244 34957,6917.901,95.438,540.974,538.558,0.0
51756.0,STARLINK-3513,PAYLOAD,2022-10-06 18:43:25,15.08828944,0.0001813,53.2196,160.1907,46.2791,313.8351,0.00015333,2.152e-05,0.0,0 STARLINK-3513,1 51756U 22016AU  22279.78016145  .00002152  00000-0  15333-3 0  9997,2 51756  53.2196 160.1907 0001813  46.2791 313.8351 15.08828944 35010,6917.9140000000025,95.438,541.033,538.525,0.0
51756.0,STARLINK-3513,PAYLOAD,2022-10-06 20:18:49,15.08824294,0.0001719,53.2191,159.8944,45.7758,314.3375,0.00022464,3.287e-05,0.0,0 STARLINK-3513,1 51756U 22016AU  22279.84640172  .00003287  00000-0  22464-3 0  9990,2 51756  53.2191 159.8944 0001719  45.7758 314.3375 15.08824294 36098,6917.928000000001,95.439,540.9830000000002,538.604,0.0
51756.0,STARLINK-3513,PAYLOAD,2022-10-07 09:01:53,15.08847612,0.0001778,53.2194,157.5154,46.9524,313.1617,0.00024241,3.573e-05,0.0,0 STARLINK-3513,1 51756U 22016AU  22280.37631164  .00003573  00000-0  24241-3 0  9994,2 51756  53.2194 157.5154 0001778  46.9524 313.1617 15.08847612 36172,6917.857,95.437,540.952,538.492,0.0
51756.0,STARLINK-3513,PAYLOAD,2022-10-07 20:09:36,15.08841621,0.0002201999999999,53.2199,155.4309,45.7403,314.3769,0.00022185,3.244e-05,0.0,0 STARLINK-3513,1 51756U 22016AU  22280.84000042  .00003244  00000-0  22185-3 0  9991,2 51756  53.2199 155.4309 0002202  45.7403 314.3769 15.08841621 36245,6917.875,95.437,541.264,538.217,0.0
51756.0,STARLINK-3513,PAYLOAD,2022-10-08 10:28:04,15.08833749,0.0001858,53.2182,152.7587,48.1993,311.9158,6.8737e-05,8.06e-06,0.0,0 STARLINK-3513,1 51756U 22016AU  22281.43616591  .00000806  00000-0  68737-4 0  9994,2 51756  53.2182 152.7587 0001858  48.1993 311.9158 15.08833749 36339,6917.899,95.438,541.05,538.479,0.0
51756.0,STARLINK-3513,PAYLOAD,2022-10-08 20:00:23,15.08845462,0.0001844,53.2181,150.9747,48.9034,311.2117,0.00017423,2.486e-05,0.0,0 STARLINK-3513,1 51756U 22016AU  22281.83360026  .00002486  00000-0  17423-3 0  9998,2 51756  53.2181 150.9747 0001844  48.9034 311.2117 15.08845462 36394,6917.864000000001,95.437,541.004,538.453,0.0
51756.0,STARLINK-3513,PAYLOAD,2022-10-09 00:46:32,15.08839519,0.0001776999999999,53.2197,150.0811,46.8978,313.2163,6.2811e-05,7.12e-06,0.0,0 STARLINK-3513,1 51756U 22016AU  22282.03232437  .00000712  00000-0  62811-4 0  9997,2 51756  53.2197 150.0811 0001777  46.8978 313.2163 15.08839519 36426,6917.882,95.438,540.976,538.518,0.0
51756.0,STARLINK-3513,PAYLOAD,2022-10-09 11:54:13,15.08853783,0.0001751999999999,53.2195,148.0008,45.3568,314.7567,5.9328e-05,6.57e-06,0.0,0 STARLINK-3513,1 51756U 22016AU  22282.49599268  .00000657  00000-0  59328-4 0  9992,2 51756  53.2195 148.0008 0001752  45.3568 314.7567 15.08853783 36491,6917.8380000000025,95.437,540.915,538.491,0.0
51756.0,STARLINK-3513,PAYLOAD,2022-10-09 21:26:32,15.08847852,0.0001821,53.2191,146.2163,49.6634,310.4517,0.00010863,1.442e-05,0.0,0 STARLINK-3513,1 51756U 22016AU  22282.89343456  .00001442  00000-0  10863-3 0  9995,2 51756  53.2191 146.2163 0001821  49.6634 310.4517 15.08847852 35483,6917.856,95.437,540.981,538.462,0.0
51756.0,STARLINK-3513,PAYLOAD,2022-10-10 10:09:38,15.08835963,0.0001854,53.2187,143.8375,41.4973,318.616,9.6242e-05,1.244e-05,0.0,0 STARLINK-3513,1 51756U 22016AU  22283.42336343  .00001244  00000-0  96242-4 0  9998,2 51756  53.2187 143.8375 0001854  41.4973 318.6160 15.08835963 35561,6917.893,95.438,541.04,538.475,0.0
51756.0,STARLINK-3513,PAYLOAD,2022-10-10 21:17:20,15.08836229,0.0001778,53.2181,141.7543,51.9189,308.1964,9.626e-05,1.244e-05,0.0,0 STARLINK-3513,1 51756U 22016AU  22283.88704261  .00001244  00000-0  96260-4 0  9996,2 51756  53.2181 141.7543 0001778  51.9189 308.1964 15.08836229 35639,6917.892,95.438,540.987,538.5269999999998,0.0
51756.0,STARLINK-3513,PAYLOAD,2022-10-11 10:00:26,15.08827952,0.000161,53.2188,139.3765,48.2737,311.8393,-1.5151e-05,-5.29e-06,0.0,0 STARLINK-3513,1 51756U 22016AU  22284.41697178 -.00000529  00000-0 -15151-4 0  9991,2 51756  53.2188 139.3765 0001610  48.2737 311.8393 15.08827952 36785,6917.917,95.438,540.896,538.668,0.0
51756.0,STARLINK-3513,PAYLOAD,2022-10-11 16:21:59,15.08833028,0.0001634,53.2189,138.1879,55.8796,304.2351,-0.00016408,-2.898e-05,0.0,0 STARLINK-3513,1 51756U 22016AU  22284.68193357 -.00002898  00000-0 -16408-3 0  9996,2 51756  53.2189 138.1879 0001634  55.8796 304.2351 15.08833028 35751,6917.901999999999,95.438,540.8969999999998,538.636,0.0
51756.0,STARLINK-3513,PAYLOAD,2022-10-12 09:51:13,15.08834371,0.0001769,53.219,134.9169,43.2565,316.8566,6.7893e-05,7.92e-06,0.0,0 STARLINK-3513,1 51756U 22016AU  22285.41056984  .00000792  00000-0  67893-4 0  9996,2 51756  53.2190 134.9169 0001769  43.2565 316.8566 15.08834371 35864,6917.898,95.438,540.986,538.539,0.0
51756.0,STARLINK-3513,PAYLOAD,2022-10-12 16:12:46,15.08829847,0.0001579,53.2198,133.72799999999998,39.6042,320.5065,3.278e-05,2.34e-06,0.0,0 STARLINK-3513,1 51756U 22016AU  22285.67553492  .00000234  00000-0  32780-4 0  9998,2 51756  53.2198 133.7280 0001579  39.6042 320.5065 15.08829847 35904,6917.911,95.438,540.869,538.684,0.0
51756.0,STARLINK-3513,PAYLOAD,2022-10-13 00:09:42,15.08827274,0.0001496,53.22,132.2405,43.4114,316.6996,6.4509e-05,7.39e-06,0.0,0 STARLINK-3513,1 51756U 22016AU  22286.00673781  .00000739  00000-0  64509-4 0  9994,2 51756  53.2200 132.2405 0001496  43.4114 316.6996 15.08827274 37028,6917.919,95.438,540.819,538.749,0.0
51756.0,STARLINK-3513,PAYLOAD,2022-10-13 09:42:01,15.08826332,0.0001648,53.22,130.4573,40.0945,320.0168,0.00011623,1.562e-05,0.0,0 STARLINK-3513,1 51756U 22016AU  22286.40418059  .00001562  00000-0  11623-3 0  9996,2 51756  53.2200 130.4573 0001648  40.0945 320.0168 15.08826332 36010,6917.922,95.438,540.927,538.6469999999998,0.0
51756.0,STARLINK-3513,PAYLOAD,2022-10-13 20:49:42,15.08834653,0.0001682,53.2198,128.3756,44.4581,315.6546,0.00015802,2.227e-05,0.0,0 STARLINK-3513,1 51756U 22016AU  22286.86785713  .00002227  00000-0  15802-3 0  9992,2 51756  53.2198 128.3756 0001682  44.4581 315.6546 15.08834653 36089,6917.897,95.438,540.925,538.5980000000002,0.0
51756.0,STARLINK-3513,PAYLOAD,2022-10-14 07:57:25,15.08832086,0.0001715,53.2192,126.2934,46.3191,313.7943,5.7324e-05,6.24e-06,0.0,0 STARLINK-3513,1 51756U 22016AU  22287.33154304  .00000624  00000-0  57324-4 0  9996,2 51756  53.2192 126.2934 0001715  46.3191 313.7943 15.08832086 36159,6917.905,95.438,540.956,538.5830000000002,0.0
51756.0,STARLINK-3513,PAYLOAD,2022-10-14 20:40:29,15.08842393,0.0001835,53.219,123.915,48.8189,311.2961,0.00015502,2.18e-05,0.0,0 STARLINK-3513,1 51756U 22016AU  22287.86145533  .00002180  00000-0  15502-3 0  9998,2 51756  53.2190 123.9150 0001835  48.8189 311.2961 15.08842393 36232,6917.873000000001,95.437,541.008,538.469,0.0
51756.0,STARLINK-3513,PAYLOAD,2022-10-14 22:15:52,15.08843927,0.0001453999999999,53.2189,123.6174,53.1608,306.9517,0.00016266,2.302e-05,0.0,0 STARLINK-3513,1 51756U 22016AU  22287.92769295  .00002302  00000-0  16266-3 0  9996,2 51756  53.2189 123.6174 0001454  53.1608 306.9517 15.08843927 37317,6917.868,95.437,540.739,538.7280000000002,0.0
51756.0,STARLINK-3513,PAYLOAD,2022-10-15 07:48:11,15.08852207,0.0002,53.2187,121.8332,50.6625,309.4544,0.00014996,2.1e-05,0.0,0 STARLINK-3513,1 51756U 22016AU  22288.32512814  .00002100  00000-0  14996-3 0  9998,2 51756  53.2187 121.8332 0002000  50.6625 309.4544 15.08852207 36307,6917.843000000003,95.437,541.092,538.325,0.0
51756.0,STARLINK-3513,PAYLOAD,2022-10-15 17:20:30,15.08843388,0.0001873,53.2189,120.0494,48.8222,311.2931,5.8614e-05,6.45e-06,0.0,0 STARLINK-3513,1 51756U 22016AU  22288.72257454  .00000645  00000-0  58614-4 0  9996,2 51756  53.2189 120.0494 0001873  48.8222 311.2931 15.08843388 36365,6917.87,95.437,541.031,538.439,0.0
51756.0,STARLINK-3513,PAYLOAD,2022-10-15 22:06:39,15.08841935,0.0001761,53.219,119.1574,48.3451,311.7692,9.5996e-05,1.24e-05,0.0,0 STARLINK-3513,1 51756U 22016AU  22288.92129353  .00001240  00000-0  95996-4 0  9990,2 51756  53.2190 119.1574 0001761  48.3451 311.7692 15.08841935 37467,6917.874,95.437,540.9580000000002,538.521,0.0
51756.0,STARLINK-3513,PAYLOAD,2022-10-16 12:25:08,15.08837374,0.0001959,53.2184,116.4807,45.6524,314.4629,1.0778e-05,-1.17e-06,0.0,0 STARLINK-3513,1 51756U 22016AU  22289.51746036 -.00000117  00000-0  10778-4 0  9997,2 51756  53.2184 116.4807 0001959  45.6524 314.4629 15.08837374 37551,6917.888000000001,95.438,541.109,538.398,0.0
51756.0,STARLINK-3513,PAYLOAD,2022-10-16 18:46:40,15.08841476,0.0001867,53.2187,115.2914,47.1153,312.9996,4.912100000000001e-05,4.94e-06,0.0,0 STARLINK-3513,1 51756U 22016AU  22289.78241660  .00000494  00000-0  49121-4 0  9990,2 51756  53.2187 115.2914 0001867  47.1153 312.9996 15.08841476 36527,6917.876,95.437,541.0319999999998,538.4490000000002,0.0
51756.0,STARLINK-3513,PAYLOAD,2022-10-17 07:29:45,15.08851838,0.0001876999999999,53.219,112.9127,46.1556,313.9591,1.1709e-05,-1.02e-06,0.0,0 STARLINK-3513,1 51756U 22016AU  22290.31232834 -.00000102  00000-0  11709-4 0  9992,2 51756  53.2190 112.9127 0001877  46.1556 313.9591 15.08851838 37670,6917.844,95.437,541.008,538.411,0.0
51756.0,STARLINK-3513,PAYLOAD,2022-10-17 18:37:27,15.08837606,0.000192,53.2191,110.8315,44.1873,315.9273,2.6521e-05,1.34e-06,0.0,0 STARLINK-3513,1 51756U 22016AU  22290.77601756  .00000134  00000-0  26521-4 0  9997,2 51756  53.2191 110.8315 0001920  44.1873 315.9273 15.08837606 37740,6917.888000000001,95.438,541.081,538.424,0.0
